$$SOE
2460721.500000000, A.D. 2025-Feb-15 00:00:00.0000, -2.400467992474090E+08, -2.416843209255973E+08, -2.677022961129139E+07,
2460728.500000000, A.D. 2025-Feb-22 00:00:00.0000, -2.299950568812800E+08, -2.480818529704969E+08, -2.618989492479163E+07,
2460735.500000000, A.D. 2025-Mar-01 00:00:00.0000, -2.196575465331645E+08, -2.541711296745349E+08, -2.557701692238718E+07,
2460742.500000000, A.D. 2025-Mar-08 00:00:00.0000, -2.090412446296458E+08, -2.599377922259163E+08, -2.493167428999370E+07,
2460749.500000000, A.D. 2025-Mar-15 00:00:00.0000, -1.981538466579511E+08, -2.653673319942812E+08, -2.425399743768317E+07,
2460756.500000000, A.D. 2025-Mar-22 00:00:00.0000, -1.870038102907588E+08, -2.704451180167671E+08, -2.354417238113548E+07,
2460763.500000000, A.D. 2025-Mar-29 00:00:00.0000, -1.756003977423634E+08, -2.751564311946244E+08, -2.280244512564214E+07,
2460770.500000000, A.D. 2025-Apr-05 00:00:00.0000, -1.639537167101099E+08, -2.794865024432654E+08, -2.202912631407858E+07,
2460777.500000000, A.D. 2025-Apr-12 00:00:00.0000, -1.520747614413300E+08, -2.834205550715858E+08, -2.122459593624735E+07,
2460784.500000000, A.D. 2025-Apr-19 00:00:00.0000, -1.399754536560518E+08, -2.869438526431850E+08, -2.038930813085566E+07,
2460791.500000000, A.D. 2025-Apr-26 00:00:00.0000, -1.276686825198033E+08, -2.900417528754311E+08, -1.952379609109655E+07,
2460798.500000000, A.D. 2025-May-03 00:00:00.0000, -1.151683429359472E+08, -2.926997678800970E+08, -1.862867704428037E+07,
2460805.500000000, A.D. 2025-May-10 00:00:00.0000, -1.024893714240301E+08, -2.949036310152428E+08, -1.770465725995207E+07,
2460812.500000000, A.D. 2025-May-17 00:00:00.0000, -8.964777874759328E+07, -2.966393706080019E+08, -1.675253703626052E+07,
2460819.500000000, A.D. 2025-May-24 00:00:00.0000, -7.666067822020218E+07, -2.978933907517424E+08, -1.577321561987075E+07,
2460826.500000000, A.D. 2025-May-31 00:00:00.0000, -6.354630828672126E+07, -2.986525589342248E+08, -1.476769599968673E+07,
2460833.500000000, A.D. 2025-Jun-07 00:00:00.0000, -5.032404872209530E+07, -2.989042992512931E+08, -1.373708935675596E+07,
2460840.500000000, A.D. 2025-Jun-14 00:00:00.0000, -3.701443168675360E+07, -2.986366916867977E+08, -1.268261891315527E+07,
2460847.500000000, A.D. 2025-Jun-21 00:00:00.0000, -2.363914523262187E+07, -2.978385803710825E+08, -1.160562345173401E+07,
2460854.500000000, A.D. 2025-Jun-28 00:00:00.0000, -1.022102489261430E+07, -2.964996885068294E+08, -1.050756053225106E+07,
2460861.500000000, A.D. 2025-Jul-05 00:00:00.0000, 3.215966392668117E+06, -2.946107370538722E+08, -9.390008963676944E+06,
2460868.500000000, A.D. 2025-Jul-12 00:00:00.0000, 1.664677007368997E+07, -2.921635670041668E+08, -8.254670359390825E+06,
2460875.500000000, A.D. 2025-Jul-19 00:00:00.0000, 3.004527690703582E+07, -2.891512646124787E+08, -7.103369707161278E+06,
2460882.500000000, A.D. 2025-Jul-26 00:00:00.0000, 4.338438629694691E+07, -2.855682881804234E+08, -5.938054844750911E+06,
2460889.500000000, A.D. 2025-Aug-02 00:00:00.0000, 5.663608107930651E+07, -2.814105946537969E+08, -4.760794715051845E+06,
2460896.500000000, A.D. 2025-Aug-09 00:00:00.0000, 6.977151852421011E+07, -2.766757640748175E+08, -3.573776281043306E+06,
2460903.500000000, A.D. 2025-Aug-16 00:00:00.0000, 8.276113813473438E+07, -2.713631197486652E+08, -2.379300001587600E+06,
2460910.500000000, A.D. 2025-Aug-23 00:00:00.0000, 9.557478672210371E+07, -2.654738417056372E+08, -1.179773799068347E+06,
2460917.500000000, A.D. 2025-Aug-30 00:00:00.0000, 1.081818609044607E+08, -2.590110701840447E+08, 2.229458067966998E+04,
2460924.500000000, A.D. 2025-Sep-06 00:00:00.0000, 1.205514650126963E+08, -2.519799954700767E+08, 1.224307069489315E+06,
2460931.500000000, A.D. 2025-Sep-13 00:00:00.0000, 1.326525816787305E+08, -2.443879338826036E+08, 2.423586595046118E+06,
2460938.500000000, A.D. 2025-Sep-20 00:00:00.0000, 1.444542568467884E+08, -2.362443889102745E+08, 3.617389746759966E+06,
2460945.500000000, A.D. 2025-Sep-27 00:00:00.0000, 1.559257982453033E+08, -2.275610919126860E+08, 4.802920868499413E+06,
2460952.500000000, A.D. 2025-Oct-04 00:00:00.0000, 1.670369828006053E+08, -2.183520196275947E+08, 5.977347683591664E+06,
2460959.500000000, A.D. 2025-Oct-11 00:00:00.0000, 1.777582696694551E+08, -2.086333875639594E+08, 7.137818238827139E+06,
2460966.500000000, A.D. 2025-Oct-18 00:00:00.0000, 1.880610158373147E+08, -1.984236181468539E+08, 8.281478903052613E+06,
2460973.500000000, A.D. 2025-Oct-25 00:00:00.0000, 1.979176907794844E+08, -1.877432827394864E+08, 9.405493150711231E+06,
2460980.500000000, A.D. 2025-Nov-01 00:00:00.0000, 2.073020863781672E+08, -1.766150172802343E+08, 1.050706083417110E+07,
2460987.500000000, A.D. 2025-Nov-08 00:00:00.0000, 2.161895181969366E+08, -1.650634119843262E+08, 1.158343761620889E+07,
2460994.500000000, A.D. 2025-Nov-15 00:00:00.0000, 2.245570143741126E+08, -1.531148762686767E+08, 1.263195420112961E+07,
2461001.500000000, A.D. 2025-Nov-22 00:00:00.0000, 2.323834888475194E+08, -1.407974804564690E+08, 1.365003499576209E+07,
2461008.500000000, A.D. 2025-Nov-29 00:00:00.0000, 2.396498954014190E+08, -1.281407755558839E+08, 1.463521596536558E+07,
2461015.500000000, A.D. 2025-Dec-06 00:00:00.0000, 2.463393573447027E+08, -1.151755942589704E+08, 1.558516155682687E+07,
2461022.500000000, A.D. 2025-Dec-13 00:00:00.0000, 2.524372708844589E+08, -1.019338400061699E+08, 1.649768007321269E+07,
2461029.500000000, A.D. 2025-Dec-20 00:00:00.0000, 2.579313839599484E+08, -8.844826691478531E+07, 1.737073700025674E+07,
2461036.500000000, A.D. 2025-Dec-27 00:00:00.0000, 2.628118484381826E+08, -7.475225202551351E+07, 1.820246638172897E+07,
2461043.500000000, A.D. 2026-Jan-03 00:00:00.0000, 2.670712439054072E+08, -6.087956460948958E+07, 1.899118016842325E+07,
2461050.500000000, A.D. 2026-Jan-10 00:00:00.0000, 2.707045735628220E+08, -4.686413727609960E+07, 1.973537537385568E+07,
2461057.500000000, A.D. 2026-Jan-17 00:00:00.0000, 2.737092335233244E+08, -3.273984283380886E+07, 2.043373896531555E+07,
2461064.500000000, A.D. 2026-Jan-24 00:00:00.0000, 2.760849572508212E+08, -1.854028042270380E+07, 2.108515050018430E+07,
2461071.500000000, A.D. 2026-Jan-31 00:00:00.0000, 2.778337373405806E+08, -4.298574050492201E+06, 2.168868257431320E+07,
2461078.500000000, A.D. 2026-Feb-07 00:00:00.0000, 2.789597272852775E+08, 9.952813774973180E+06, 2.224359919042757E+07,
2461085.500000000, A.D. 2026-Feb-14 00:00:00.0000, 2.794691263541551E+08, 2.418225119676507E+07, 2.274935218033599E+07,
2461092.500000000, A.D. 2026-Feb-21 00:00:00.0000, 2.793700510114768E+08, 3.835908797006132E+07, 2.320557587953707E+07,
2461099.500000000, A.D. 2026-Feb-28 00:00:00.0000, 2.786723948899555E+08, 5.245378839864078E+07, 2.361208045808055E+07,
2461106.500000000, A.D. 2026-Mar-07 00:00:00.0000, 2.773876783393463E+08, 6.643804383237056E+07, 2.396884416295906E+07,
2461113.500000000, A.D. 2026-Mar-14 00:00:00.0000, 2.755288932636256E+08, 8.028486240823308E+07, 2.427600425222765E+07,
2461120.500000000, A.D. 2026-Mar-21 00:00:00.0000, 2.731103477612888E+08, 9.396863939978823E+07, 2.453384691973531E+07,
2461127.500000000, A.D. 2026-Mar-28 00:00:00.0000, 2.701475110678082E+08, 1.074652100455094E+08, 2.474279670702269E+07,
2461134.500000000, A.D. 2026-Apr-04 00:00:00.0000, 2.666568604349389E+08, 1.207518850139530E+08, 2.490340559826075E+07,
2461141.500000000, A.D. 2026-Apr-11 00:00:00.0000, 2.626557321429006E+08, 1.338074694797092E+08, 2.501634194266582E+07,
2461148.500000000, A.D. 2026-Apr-18 00:00:00.0000, 2.581621783935488E+08, 1.466122672905260E+08, 2.508237936332918E+07,
2461155.500000000, A.D. 2026-Apr-25 00:00:00.0000, 2.531948313939095E+08, 1.591480718261977E+08, 2.510238579931128E+07,
2461162.500000000, A.D. 2026-May-02 00:00:00.0000, 2.477727756195662E+08, 1.713981451508286E+08, 2.507731280308117E+07,
2461169.500000000, A.D. 2026-May-09 00:00:00.0000, 2.419154290624381E+08, 1.833471870206431E+08, 2.500818518249338E+07,
2461176.500000000, A.D. 2026-May-16 00:00:00.0000, 2.356424342716418E+08, 1.949812954698803E+08, 2.489609104937918E+07,
2461183.500000000, A.D. 2026-May-23 00:00:00.0000, 2.289735594466386E+08, 2.062879214987836E+08, 2.474217241769964E+07,
2461190.500000000, A.D. 2026-May-30 00:00:00.0000, 2.219286075063186E+08, 2.172558195838188E+08, 2.454761661301593E+07,
2461197.500000000, A.D. 2026-Jun-06 00:00:00.0000, 2.145273326664121E+08, 2.278749920413734E+08, 2.431364828823361E+07,
2461204.500000000, A.D. 2026-Jun-13 00:00:00.0000, 2.067893679284423E+08, 2.381366286188889E+08, 2.404152174374031E+07,
2461211.500000000, A.D. 2026-Jun-20 00:00:00.0000, 1.987341625996037E+08, 2.480330452729254E+08, 2.373251383924153E+07,
2461218.500000000, A.D. 2026-Jun-27 00:00:00.0000, 1.903809276838104E+08, 2.575576227056087E+08, 2.338791761859883E+07,
2461225.500000000, A.D. 2026-Jul-04 00:00:00.0000, 1.817485886327969E+08, 2.667047446748657E+08, 2.300903657017344E+07,
2461232.500000000, A.D. 2026-Jul-11 00:00:00.0000, 1.728557451671293E+08, 2.754697366181424E+08, 2.259717946772967E+07,
2461239.500000000, A.D. 2026-Jul-18 00:00:00.0000, 1.637206376978824E+08, 2.838488051761044E+08, 2.215365575948560E+07,
2461246.500000000, A.D. 2026-Jul-25 00:00:00.0000, 1.543611198072678E+08, 2.918389790783304E+08, 2.167977147363865E+07,
2461253.500000000, A.D. 2026-Aug-01 00:00:00.0000, 1.447946362770770E+08, 2.994380517106032E+08, 2.117682559997779E+07,
2461260.500000000, A.D. 2026-Aug-08 00:00:00.0000, 1.350382063362912E+08, 3.066445256146353E+08, 2.064610689161769E+07,
2461267.500000000, A.D. 2026-Aug-15 00:00:00.0000, 1.251084120229664E+08, 3.134575595873924E+08, 2.008889105184682E+07,
2461274.500000000, A.D. 2026-Aug-22 00:00:00.0000, 1.150213904100689E+08, 3.198769197535735E+08, 1.950643844143069E+07,
2461281.500000000, A.D. 2026-Aug-29 00:00:00.0000, 1.047928269421970E+08, 3.259029333268785E+08, 1.889999236979145E+07,
2461288.500000000, A.D. 2026-Sep-05 00:00:00.0000, 9.443795157760543E+07, 3.315364422443506E+08, 1.827077750881301E+07,
$$EOE